{"type": "FeatureCollection", "features": [ {"type": "Feature", "properties": {"norad_id": 30771, "name": "FENGYUN 1C DEB", "group": "fengyun-1c-debris", "lat": -5.071892012897865, "lon": 152.3118677883137, "alt_km": 749.1451188084711, "timestamp": "2025-12-23T09:49:07.361933+00:00", "meta": {"OBJECT_NAME": "FENGYUN 1C DEB", "OBJECT_ID": "1999-025AUH", "EPOCH": "2025-12-22T11:19:57.659232", "MEAN_MOTION": 14.43315606, "ECCENTRICITY": 0.0022325, "INCLINATION": 98.9061, "RA_OF_ASC_NODE": 332.1302, "ARG_OF_PERICENTER": 270.9076, "MEAN_ANOMALY": 88.9555, "EPHEMERIS_TYPE": 0, "CLASSIFICATION_TYPE": "U", "NORAD_CAT_ID": 30771, "ELEMENT_SET_NO": 999, "REV_AT_EPOCH": 97204, "BSTAR": 0.0025187478, "MEAN_MOTION_DOT": 8.476e-05, "MEAN_MOTION_DDOT": 0}, "tle": {"line1": "1 30771U 99025AUH 25356.47219513  .00008476  00000+0  25187-2 0  9995", "line2": "2 30771  98.9061 332.1302 0022325 270.9076  88.9555 14.43315606972047"}}, "geometry": {"type": "Point", "coordinates": [152.3118677883137, -5.071892012897865]}}, {"type": "Feature", "properties": {"norad_id": 30802, "name": "FENGYUN 1C DEB", "group": "fengyun-1c-debris", "lat": -77.01939030772283, "lon": -138.0441048410671, "alt_km": 794.6017935991977, "timestamp": "2025-12-23T09:49:07.361943+00:00", "meta": {"OBJECT_NAME": "FENGYUN 1C DEB", "OBJECT_ID": "1999-025AUL", "EPOCH": "2025-12-21T04:46:44.859648", "MEAN_MOTION": 14.3251891, "ECCENTRICITY": 0.00176283, "INCLINATION": 98.8374, "RA_OF_ASC_NODE": 82.1518, "ARG_OF_PERICENTER": 15.5568, "MEAN_ANOMALY": 14.4616, "EPHEMERIS_TYPE": 0, "CLASSIFICATION_TYPE": "U", "NORAD_CAT_ID": 30802, "ELEMENT_SET_NO": 999, "REV_AT_EPOCH": 97324, "BSTAR": 0.0011058315, "MEAN_MOTION_DOT": 2.958e-05, "MEAN_MOTION_DDOT": 0}, "tle": {"line1": "1 30802U 99025AUL 25355.19913032  .00002958  00000+0  11058-2 0  9996", "line2": "2 30802  98.8374  82.1518 0017628  15.5568  14.4616 14.32518910973244"}}, "geometry": {"type": "Point", "coordinates": [-138.0441048410671, -77.01939030772283]}}, {"type": "Feature", "properties": {"norad_id": 30803, "name": "FENGYUN 1C DEB", "group": "fengyun-1c-debris", "lat": 49.006407138952696, "lon": -138.29323718775734, "alt_km": 792.0943147319495, "timestamp": "2025-12-23T09:49:07.361953+00:00", "meta": {"OBJECT_NAME": "FENGYUN 1C DEB", "OBJECT_ID": "1999-025AUM", "EPOCH": "2025-12-22T01:00:59.351904", "MEAN_MOTION": 14.11287813, "ECCENTRICITY": 0.01076097, "INCLINATION": 99.2454, "RA_OF_ASC_NODE": 29.4978, "ARG_OF_PERICENTER": 175.7085, "MEAN_ANOMALY": 214.9537, "EPHEMERIS_TYPE": 0, "CLASSIFICATION_TYPE": "U", "NORAD_CAT_ID": 30803, "ELEMENT_SET_NO": 999, "REV_AT_EPOCH": 96130, "BSTAR": 0.0011029016, "MEAN_MOTION_DOT": 2.057e-05, "MEAN_MOTION_DDOT": 0}, "tle": {"line1": "1 30803U 99025AUM 25356.04235361  .00002057  00000+0  11029-2 0  9992", "line2": "2 30803  99.2454  29.4978 0107609 175.7085 214.9537 14.11287813961300"}}, "geometry": {"type": "Point", "coordinates": [-138.29323718775734, 49.006407138952696]}}, {"type": "Feature", "properties": {"norad_id": 30804, "name": "FENGYUN 1C DEB", "group": "fengyun-1c-debris", "lat": 20.520351928510685, "lon": 60.16265133979102, "alt_km": 806.2118196061847, "timestamp": "2025-12-23T09:49:07.361963+00:00", "meta": {"OBJECT_NAME": "FENGYUN 1C DEB", "OBJECT_ID": "1999-025AUN", "EPOCH": "2025-12-20T23:05:50.856288", "MEAN_MOTION": 14.54645992, "ECCENTRICITY": 0.0185848, "INCLINATION": 98.894, "RA_OF_ASC_NODE": 60.9206, "ARG_OF_PERICENTER": 165.6551, "MEAN_ANOMALY": 11.2785, "EPHEMERIS_TYPE": 0, "CLASSIFICATION_TYPE": "U", "NORAD_CAT_ID": 30804, "ELEMENT_SET_NO": 999, "REV_AT_EPOCH": 99596, "BSTAR": 0.00032138, "MEAN_MOTION_DOT": 1.669e-05, "MEAN_MOTION_DDOT": 0}, "tle": {"line1": "1 30804U 99025AUN 25354.96239417  .00001669  00000+0  32138-3 0  9991", "line2": "2 30804  98.8940  60.9206 0185848 165.6551  11.2785 14.54645992995962"}}, "geometry": {"type": "Point", "coordinates": [60.16265133979102, 20.520351928510685]}}, {"type": "Feature", "properties": {"norad_id": 30805, "name": "FENGYUN 1C DEB", "group": "fengyun-1c-debris", "lat": -11.915284635629185, "lon": 41.613347687507634, "alt_km": 891.2640491290349, "timestamp": "2025-12-23T09:49:07.361976+00:00", "meta": {"OBJECT_NAME": "FENGYUN 1C DEB", "OBJECT_ID": "1999-025AUP", "EPOCH": "2025-12-22T21:01:43.362048", "MEAN_MOTION": 14.02922685, "ECCENTRICITY": 0.00705149, "INCLINATION": 98.8196, "RA_OF_ASC_NODE": 39.2197, "ARG_OF_PERICENTER": 255.4744, "MEAN_ANOMALY": 281.7545, "EPHEMERIS_TYPE": 0, "CLASSIFICATION_TYPE": "U", "NORAD_CAT_ID": 30805, "ELEMENT_SET_NO": 999, "REV_AT_EPOCH": 96102, "BSTAR": 0.00095720986, "MEAN_MOTION_DOT": 1.474e-05, "MEAN_MOTION_DDOT": 0}, "tle": {"line1": "1 30805U 99025AUP 25356.87619632  .00001474  00000+0  95721-3 0  9996", "line2": "2 30805  98.8196  39.2197 0070514 255.4744 281.7545 14.02922685961027"}}, "geometry": {"type": "Point", "coordinates": [41.613347687507634, -11.915284635629185]}}, {"type": "Feature", "properties": {"norad_id": 30806, "name": "FENGYUN 1C DEB", "group": "fengyun-1c-debris", "lat": -18.790651745385258, "lon": -159.79105053462914, "alt_km": 1020.2867850227476, "timestamp": "2025-12-23T09:49:07.361987+00:00", "meta": {"OBJECT_NAME": "FENGYUN 1C DEB", "OBJECT_ID": "1999-025AUQ", "EPOCH": "2025-12-21T01:04:51.239136", "MEAN_MOTION": 13.70431377, "ECCENTRICITY": 0.02680834, "INCLINATION": 99.0352, "RA_OF_ASC_NODE": 21.0883, "ARG_OF_PERICENTER": 108.5793, "MEAN_ANOMALY": 310.1966, "EPHEMERIS_TYPE": 0, "CLASSIFICATION_TYPE": "U", "NORAD_CAT_ID": 30806, "ELEMENT_SET_NO": 999, "REV_AT_EPOCH": 93809, "BSTAR": 0.00059263332, "MEAN_MOTION_DOT": 6.37e-06, "MEAN_MOTION_DDOT": 0}, "tle": {"line1": "1 30806U 99025AUQ 25355.04503749  .00000637  00000+0  59263-3 0  9997", "line2": "2 30806  99.0352  21.0883 0268083 108.5793 310.1966 13.70431377938090"}}, "geometry": {"type": "Point", "coordinates": [-159.79105053462914, -18.790651745385258]}}, {"type": "Feature", "properties": {"norad_id": 30809, "name": "FENGYUN 1C DEB", "group": "fengyun-1c-debris", "lat": 74.11899393820246, "lon": -60.51740607800646, "alt_km": 757.4504749287935, "timestamp": "2025-12-23T09:49:07.361997+00:00", "meta": {"OBJECT_NAME": "FENGYUN 1C DEB", "OBJECT_ID": "1999-025AUT", "EPOCH": "2025-12-22T11:29:46.489056", "MEAN_MOTION": 14.29308301, "ECCENTRICITY": 0.00522093, "INCLINATION": 98.7889, "RA_OF_ASC_NODE": 85.6025, "ARG_OF_PERICENTER": 144.2768, "MEAN_ANOMALY": 216.1925, "EPHEMERIS_TYPE": 0, "CLASSIFICATION_TYPE": "U", "NORAD_CAT_ID": 30809, "ELEMENT_SET_NO": 999, "REV_AT_EPOCH": 97226, "BSTAR": 0.0016743108, "MEAN_MOTION_DOT": 4.281e-05, "MEAN_MOTION_DDOT": 0}, "tle": {"line1": "1 30809U 99025AUT 25356.47901029  .00004281  00000+0  16743-2 0  9995", "line2": "2 30809  98.7889  85.6025 0052209 144.2768 216.1925 14.29308301972260"}}, "geometry": {"type": "Point", "coordinates": [-60.51740607800646, 74.11899393820246]}}, {"type": "Feature", "properties": {"norad_id": 30810, "name": "FENGYUN 1C DEB", "group": "fengyun-1c-debris", "lat": -66.23107656293365, "lon": -31.386403290262002, "alt_km": 980.7837396728946, "timestamp": "2025-12-23T09:49:07.362007+00:00", "meta": {"OBJECT_NAME": "FENGYUN 1C DEB", "OBJECT_ID": "1999-025AUU", "EPOCH": "2025-12-22T03:34:09.357888", "MEAN_MOTION": 14.04231857, "ECCENTRICITY": 0.0179832, "INCLINATION": 98.6622, "RA_OF_ASC_NODE": 167.6624, "ARG_OF_PERICENTER": 28.3351, "MEAN_ANOMALY": 332.7457, "EPHEMERIS_TYPE": 0, "CLASSIFICATION_TYPE": "U", "NORAD_CAT_ID": 30810, "ELEMENT_SET_NO": 999, "REV_AT_EPOCH": 94515, "BSTAR": 0.0028610424, "MEAN_MOTION_DOT": 5.208e-05, "MEAN_MOTION_DDOT": 0}, "tle": {"line1": "1 30810U 99025AUU 25356.14871942  .00005208  00000+0  28610-2 0  9997", "line2": "2 30810  98.6622 167.6624 0179832  28.3351 332.7457 14.04231857945151"}}, "geometry": {"type": "Point", "coordinates": [-31.386403290262002, -66.23107656293365]}}, {"type": "Feature", "properties": {"norad_id": 30811, "name": "FENGYUN 1C DEB", "group": "fengyun-1c-debris", "lat": -10.94262972860582, "lon": 37.430209160962065, "alt_km": 851.9961021457666, "timestamp": "2025-12-23T09:49:07.362019+00:00", "meta": {"OBJECT_NAME": "FENGYUN 1C DEB", "OBJECT_ID": "1999-025AUV", "EPOCH": "2025-12-22T02:07:59.436768", "MEAN_MOTION": 13.61870689, "ECCENTRICITY": 0.02779782, "INCLINATION": 98.7814, "RA_OF_ASC_NODE": 34.5277, "ARG_OF_PERICENTER": 21.7209, "MEAN_ANOMALY": 339.5458, "EPHEMERIS_TYPE": 0, "CLASSIFICATION_TYPE": "U", "NORAD_CAT_ID": 30811, "ELEMENT_SET_NO": 999, "REV_AT_EPOCH": 92994, "BSTAR": 0.0016486315, "MEAN_MOTION_DOT": 1.603e-05, "MEAN_MOTION_DDOT": 0}, "tle": {"line1": "1 30811U 99025AUV 25356.08888237  .00001603  00000+0  16486-2 0  9999", "line2": "2 30811  98.7814  34.5277 0277978  21.7209 339.5458 13.61870689929940"}}, "geometry": {"type": "Point", "coordinates": [37.430209160962065, -10.94262972860582]}}, {"type": "Feature", "properties": {"norad_id": 30814, "name": "FENGYUN 1C DEB", "group": "fengyun-1c-debris", "lat": -49.005644865753204, "lon": 144.22043801841193, "alt_km": 679.3728596054543, "timestamp": "2025-12-23T09:49:07.362029+00:00", "meta": {"OBJECT_NAME": "FENGYUN 1C DEB", "OBJECT_ID": "1999-025AUY", "EPOCH": "2025-12-22T14:57:46.831680", "MEAN_MOTION": 14.6065623, "ECCENTRICITY": 0.0030445, "INCLINATION": 99.0824, "RA_OF_ASC_NODE": 333.9657, "ARG_OF_PERICENTER": 201.078, "MEAN_ANOMALY": 219.6161, "EPHEMERIS_TYPE": 0, "CLASSIFICATION_TYPE": "U", "NORAD_CAT_ID": 30814, "ELEMENT_SET_NO": 999, "REV_AT_EPOCH": 97886, "BSTAR": 0.0026505907, "MEAN_MOTION_DOT": 0.00012954, "MEAN_MOTION_DDOT": 0}, "tle": {"line1": "1 30814U 99025AUY 25356.62345870  .00012954  00000+0  26506-2 0  9998", "line2": "2 30814  99.0824 333.9657 0030445 201.0780 219.6161 14.60656230978867"}}, "geometry": {"type": "Point", "coordinates": [144.22043801841193, -49.005644865753204]}}]}